{"spkid": "20523816", "covariance": {"epoch": "2456975.5", "data": [["2.967410411243575E-15", "-7.890151727881626E-15", "3.849154353190858E-13", "-1.604112792224561E-13", "5.511057532362142E-13", "1.053546881443386E-13"], ["-7.890151727881626E-15", "2.102090355813639E-14", "-8.796588947306629E-13", "3.48483481854827E-13", "-1.373448071575086E-12", "-2.581945075094928E-13"], ["3.849154353190858E-13", "-8.796588947306629E-13", "1.950040650631289E-9", "-1.587985348564706E-10", "6.071963682242484E-10", "1.621714100442954E-10"], ["-1.604112792224561E-13", "3.48483481854827E-13", "-1.587985348564706E-10", "2.121586083563041E-9", "-2.086161628692092E-9", "-3.319767908706623E-10"], ["5.511057532362142E-13", "-1.373448071575086E-12", "6.071963682242484E-10", "-2.086161628692092E-9", "2.254397436250593E-9", "3.657443240794542E-10"], ["1.053546881443386E-13", "-2.581945075094928E-13", "1.621714100442954E-10", "-3.319767908706623E-10", "3.657443240794542E-10", "1.496022708709907E-10"]], "elements": [{"value": ".7225111481233129", "title": "eccentricity", "units": null, "sigma": 5.44739424977078e-08, "name": "e", "label": "e"}, {"units": "au", "title": "perihelion distance", "value": ".7453532418727681", "sigma": 1.44985873650285e-07, "name": "q", "label": "q"}, {"value": "2456806.797388434546", "title": "time of perihelion passage", "units": "TDB", "sigma": 4.41592646070028e-05, "name": "tp", "label": "tp"}, {"units": "deg", "title": "longitude of the ascending node", "value": "227.280496842371", "sigma": 4.60606782794505e-05, "name": "om", "label": "node"}, {"label": "peri", "sigma": 4.74804953244024e-05, "name": "w", "value": "233.7934401902616", "title": "argument of perihelion", "units": "deg"}, {"label": "i", "sigma": 1.22312007125626e-05, "name": "i", "units": "deg", "title": "inclination", "value": "15.94138547969769"}], "labels": ["e", "q", "tp", "node", "peri", "i"]}, "elements": [{"name": "e", "sigma": "5.5025E-8", "title": "eccentricity", "value": ".7185112397922231", "units": null, "label": "e"}, {"label": "a", "units": "au", "title": "semi-major axis", "value": "2.700287374938193", "name": "a", "sigma": "3.6365E-8"}, {"label": "q", "value": ".7601005453760643", "title": "perihelion distance", "units": "au", "sigma": "1.4537E-7", "name": "q"}, {"label": "i", "value": "15.72954464601255", "title": "inclination; angle with respect to x-y ecliptic plane", "units": "deg", "name": "i", "sigma": "1.2249E-5"}, {"label": "node", "sigma": "4.6299E-5", "name": "om", "units": "deg", "title": "longitude of the ascending node", "value": "226.4073763002564"}, {"label": "peri", "name": "w", "sigma": "4.7761E-5", "units": "deg", "title": "argument of perihelion", "value": "234.7202277046732"}, {"units": "deg", "value": "259.4686412845592", "title": "mean anomaly", "sigma": "2.1716E-5", "name": "ma", "label": "M"}, {"label": "tp", "title": "time of perihelion passage", "value": "2461653.097819380622", "units": "TDB", "sigma": ".00010661", "name": "tp"}, {"label": "period", "name": "per", "sigma": "3.274E-5", "units": "d", "title": "sidereal orbital period", "value": "1620.740205434012"}, {"units": "deg/d", "title": "mean motion", "value": ".2221207314984803", "name": "n", "sigma": "4.4869E-9", "label": "n"}, {"name": "ad", "sigma": "6.2493E-8", "units": "au", "value": "4.640474204500321", "title": "aphelion distance", "label": "Q"}], "epoch": "2461200.5"}